[ {"name": "STARLINK-3056", "line1": "1 49159U 21082AF  26097.52923566  .00001240  00000+0  11172-3 0  9994", "line2": "2 49159  70.0004 221.7373 0003268 270.1501  89.9284 14.98326279251392"}, {"name": "STARLINK-3095", "line1": "1 49160U 21082AG  26097.51671095 -.00001258  00000+0 -97688-4 0  9990", "line2": "2 49160  70.0005 221.7517 0003246 269.0346  91.0441 14.98320111251360"}, {"name": "STARLINK-3080", "line1": "1 49161U 21082AH  26097.58764670  .00000795  00000+0  74358-4 0  9992", "line2": "2 49161  70.0004 221.5695 0003714 267.4690  92.6044 14.98342354251380"}, {"name": "STARLINK-3088", "line1": "1 49163U 21082AK  26097.63677026  .00000429  00000+0  44653-4 0  9997", "line2": "2 49163  70.0010 202.3455 0003288 270.2048  89.8734 14.97520251251944"}, {"name": "STARLINK-3106", "line1": "1 49164U 21082AL  26097.58335648  .00010597  00000+0  89453-3 0  9996", "line2": "2 49164  70.0017 201.5986 0003184 272.0020 291.1781 14.98331550  5767"}, {"name": "STARLINK-3052", "line1": "1 49165U 21082AM  26097.51254370  .00001167  00000+0  10560-3 0  9998", "line2": "2 49165  70.0006 221.7940 0002734 270.5732  89.5114 14.98330493251490"}, {"name": "STARLINK-3089", "line1": "1 49166U 21082AN  26097.63259252  .00000545  00000+0  54526-4 0  9996", "line2": "2 49166  70.0008 202.3595 0003241 268.0179  92.0609 14.97521616251985"}, {"name": "STARLINK-3054", "line1": "1 49167U 21082AP  26097.50419502  .00001675  00000+0  14818-3 0  9993", "line2": "2 49167  70.0004 221.7937 0003149 269.5563  90.5235 14.98330010251498"}, {"name": "STARLINK-3046", "line1": "1 49169U 21082AR  26097.53993733  .00253281  00000+0  19535-1 0  9992", "line2": "2 49169  69.9945 201.7167 0006658 271.9791  88.0606 15.00141318250793"}, {"name": "STARLINK-3107", "line1": "1 49171U 21082AT  26097.57722276  .00032856  00000+0  19031-2 0  9996", "line2": "2 49171  69.9928 213.6318 0005966 233.1097 126.9523 15.12059360251662"}, {"name": "STARLINK-3045", "line1": "1 49173U 21082AV  26097.46223680  .00000789  00000+0  73924-4 0  9994", "line2": "2 49173  70.0012 201.8985 0002649 271.4240  88.6615 14.98331023250780"}, {"name": "STARLINK-3087", "line1": "1 49175U 21082AX  26097.46215819  .00001401  00000+0  12775-3 0  9999", "line2": "2 49175  70.0012 202.9211 0003192 272.9181  87.1612 14.97522174250756"}, {"name": "STARLINK-3069", "line1": "1 49176U 21082AY  26097.47869225  .00001309  00000+0  11748-3 0  9993", "line2": "2 49176  70.0004 181.8644 0002890 273.5068  86.5760 14.98325404251271"}, {"name": "STARLINK-3103", "line1": "1 49177U 21082AZ  26097.63308051  .00001343  00000+0  12029-3 0  9998", "line2": "2 49177  70.0009 181.4854 0003133 268.4700  91.6101 14.98328028252499"}, {"name": "STARLINK-3086", "line1": "1 49178U 21082BA  26097.59182128  .00001236  00000+0  11136-3 0  9998", "line2": "2 49178  69.9998 221.5670 0003343 268.6387  91.4389 14.98323751251462"}, {"name": "STARLINK-3043", "line1": "1 49179U 21082BB  26097.48704208  .00002032  00000+0  17801-3 0  9996", "line2": "2 49179  70.0009 181.8361 0003001 269.8457  90.2358 14.98331458251271"}, {"name": "STARLINK-3059", "line1": "1 49181U 21082BD  26097.50836665  .00000723  00000+0  68347-4 0  9992", "line2": "2 49181  70.0004 221.7920 0003082 269.1865  90.8941 14.98328736251481"}, {"name": "STARLINK-3151", "line1": "1 49408U 21104A   26097.58335648  .01063263  00000+0  13940-1 0  9997", "line2": "2 49408  53.2174  91.2068 0000858  55.3158 152.5744 15.55375947  5760"}, {"name": "STARLINK-3075", "line1": "1 49409U 21104B   26097.27611413  .00000768  00000+0  66345-4 0  9991", "line2": "2 49409  53.2169 100.7901 0001267  88.1212 271.9926 15.08842268242952"}, {"name": "STARLINK-3147", "line1": "1 49410U 21104C   26097.26971516  .00001195  00000+0  93168-4 0  9993", "line2": "2 49410  53.2168 100.8275 0001206  87.6620 272.4511 15.08843496242947"}, {"name": "STARLINK-3162", "line1": "1 49411U 21104D   26097.26231696  .00000497  00000+0  49318-4 0  9994", "line2": "2 49411  53.2159  90.8526 0001290  85.8423 274.2716 15.08838268243083"}, {"name": "STARLINK-3157", "line1": "1 49413U 21104F   26097.25959256  .00000652  00000+0  59035-4 0  9994", "line2": "2 49413  53.2164  90.8749 0001320  90.7632 269.3512 15.08840964243084"}, {"name": "STARLINK-3146", "line1": "1 49414U 21104G   26097.26508525  .00001428  00000+0  10777-3 0  9996", "line2": "2 49414  53.2164 100.8383 0001238  92.4569 267.6565 15.08840237242943"}, {"name": "STARLINK-3159", "line1": "1 49415U 21104H   26097.38743189  .00001336  00000+0  10198-3 0  9992", "line2": "2 49415  53.2168  90.2921 0001292  86.5963 273.5177 15.08847470243098"}, {"name": "STARLINK-3133", "line1": "1 49416U 21104J   26097.39019684  .00001458  00000+0  10964-3 0  9996", "line2": "2 49416  53.2164 100.2779 0001246  92.7096 267.4039 15.08843800242960"}, {"name": "STARLINK-3154", "line1": "1 49417U 21104K   26097.28435662  .00000807  00000+0  68761-4 0  9999", "line2": "2 49417  53.2169  90.4070 0000850  42.7543 317.3515 15.08836277243080"}, {"name": "STARLINK-3111", "line1": "1 49418U 21104L   26097.38651949  .00000655  00000+0  59262-4 0  9996", "line2": "2 49418  53.2167 100.2947 0001353  87.7636 272.3511 15.08838805242953"}, {"name": "STARLINK-3120", "line1": "1 49419U 21104M   26097.44171699  .00000422  00000+0  44610-4 0  9996", "line2": "2 49419  53.2161 100.0480 0001311  94.0621 266.0521 15.08838625242969"}, {"name": "STARLINK-3110", "line1": "1 49420U 21104N   26097.38284113  .00000366  00000+0  41099-4 0  9992", "line2": "2 49420  53.2166 100.3129 0001288  90.4339 269.6801 15.08832467242955"}, {"name": "STARLINK-3112", "line1": "1 49421U 21104P   26097.41593109  .00001571  00000+0  11677-3 0  9992", "line2": "2 49421  53.2158  99.9691 0001144  94.4649 265.6474 15.08834180242960"}, {"name": "STARLINK-3161", "line1": "1 49422U 21104Q   26097.27711533  .00001924  00000+0  13890-3 0  9991", "line2": "2 49422  53.2172 101.1036 0001955  78.0116 282.1095 15.08848150242935"}, {"name": "STARLINK-3135", "line1": "1 49424U 21104S   26097.17307662  .00000864  00000+0  72361-4 0  9997", "line2": "2 49424  53.2164 101.2545 0001199  88.9281 271.1848 15.08838275242927"}, {"name": "STARLINK-3139", "line1": "1 49425U 21104T   26097.42427667 -.00000615  00000+0 -20557-4 0  9990", "line2": "2 49425  53.2161 100.1361 0001218  77.1421 282.9707 15.08836583242976"}, {"name": "STARLINK-3114", "line1": "1 49426U 21104U   26097.43067961  .00001065  00000+0  84972-4 0  9998", "line2": "2 49426  53.2163 100.0973 0001388  85.2725 274.8426 15.08837539242961"}, {"name": "STARLINK-3131", "line1": "1 49427U 21104V   26097.42059329  .00000416  00000+0  44223-4 0  9991", "line2": "2 49427  53.2165 100.1514 0001257  88.4224 271.6912 15.08839816242976"}, {"name": "STARLINK-3121", "line1": "1 49428U 21104W   26097.26874624  .00000819  00000+0  69549-4 0  9992", "line2": "2 49428  53.2168 100.7353 0001315  84.4428 275.6714 15.08840865242952"}, {"name": "STARLINK-3138", "line1": "1 49430U 21104Y   26097.44272667  .00002460  00000+0  17268-3 0  9998", "line2": "2 49430  53.2161 100.3226 0001421  75.6247 284.4903 15.08823729242972"}, {"name": "STARLINK-3153", "line1": "1 49431U 21104Z   26097.26142350  .00000910  00000+0  75285-4 0  9996", "line2": "2 49431  53.2161 101.0381 0001229  90.8170 269.2963 15.08838076242948"}, {"name": "STARLINK-3158", "line1": "1 49432U 21104AA  26097.38103183 -.00000497  00000+0 -13169-4 0  9996", "line2": "2 49432  53.2176  90.3184 0001313 104.1216 255.9922 15.08837638243109"}, {"name": "STARLINK-3079", "line1": "1 49433U 21104AB  26097.38101057 -.00001708  00000+0 -89245-4 0  9999", "line2": "2 49433  53.2171  80.3227 0001394  93.4604 266.6548 15.08848085244339"}, {"name": "STARLINK-3134", "line1": "1 49434U 21104AC  26097.22831080  .00001291  00000+0  99208-4 0  9994", "line2": "2 49434  53.2166 101.1644 0001322  89.5422 270.5721 15.08836937244020"}, {"name": "STARLINK-3117", "line1": "1 49435U 21104AD  26097.25315504  .00000869  00000+0  72669-4 0  9998", "line2": "2 49435  53.2171  80.8952 0001643  82.7611 277.3568 15.08838620243229"}, {"name": "STARLINK-3049", "line1": "1 49436U 21104AE  26097.31844152 -.00000292  00000+0 -28237-6 0  9998", "line2": "2 49436  53.2170  80.6023 0001294  90.2427 269.8713 15.08833151243230"}, {"name": "STARLINK-3130", "line1": "1 49437U 21104AF  26097.24484688  .00001060  00000+0  84693-4 0  9993", "line2": "2 49437  53.2164  80.9325 0001347  93.4909 266.6238 15.08827386243220"}, {"name": "STARLINK-3044", "line1": "1 49438U 21104AG  26097.16850528  .00000456  00000+0  46745-4 0  9999", "line2": "2 49438  53.2174  81.2080 0001355  84.0545 276.0602 15.08840896243215"}, {"name": "STARLINK-3105", "line1": "1 49440U 21104AJ  26097.17123696  .00000130  00000+0  26246-4 0  9995", "line2": "2 49440  53.2170  81.2615 0001410 100.1404 259.9748 15.08838230243214"}, {"name": "STARLINK-3128", "line1": "1 49441U 21104AK  26097.35155524  .00001024  00000+0  82406-4 0  9994", "line2": "2 49441  53.2158  80.4500 0001378  86.4194 273.6956 15.08851022243241"}, {"name": "STARLINK-3098", "line1": "1 49442U 21104AL  26097.23379567  .00000628  00000+0  57550-4 0  9998", "line2": "2 49442  53.2173  80.9799 0001274  96.0543 264.0595 15.08840161243227"}, {"name": "STARLINK-3136", "line1": "1 49443U 21104AM  26097.21539684  .00002220  00000+0  15748-3 0  9997", "line2": "2 49443  53.2166  81.0626 0001303  82.3238 277.7903 15.08844839243223"}, {"name": "STARLINK-3126", "line1": "1 49444U 21104AN  26097.23107188  .00000977  00000+0  79427-4 0  9992", "line2": "2 49444  53.2167  81.0030 0001278  83.2889 276.8248 15.08843241243225"}, {"name": "STARLINK-3122", "line1": "1 49445U 21104AP  26097.28172677 -.00000218  00000+0  44166-5 0  9995", "line2": "2 49445  53.2171  91.1612 0001491  89.1649 270.9514 15.08838047243088"}, {"name": "STARLINK-3099", "line1": "1 49446U 21104AQ  26097.35891643  .00000384  00000+0  42194-4 0  9996", "line2": "2 49446  53.2169  80.4177 0001411  88.3364 271.7790 15.08841516243248"}]